ONEWEB-0641             
1 55805U 23029K   23254.07168500  .00012744  00000+0  31784-1 0  9993
2 55805  87.9204 146.0362 0002752  77.6980 282.4461 13.19662539 26370
ONEWEB-0642             
1 55806U 23029L   23253.76366586  .00000011  00000+0 -56129-5 0  9992
2 55806  87.9270 146.0567 0003046  82.4346 277.7133 13.19723806 26321
ONEWEB-0643             
1 55807U 23029M   23253.72762661  .00000104  00000+0  20267-3 0  9997
2 55807  87.9528 130.8639 0001885  43.7311 316.3976 13.27639131 27344
ONEWEB-0644             
1 55808U 23029N   23254.06220581 -.00000026  00000+0 -97746-4 0  9998
2 55808  87.9200 146.0260 0002566  78.4625 281.6796 13.19730245 26365
ONEWEB-0645             
1 55809U 23029P   23253.22427873  .00000050  00000+0  91394-4 0  9997
2 55809  87.9272 146.1592 0002323  88.8392 271.3007 13.19723223 25561
ONEWEB-0646             
1 55810U 23029Q   23253.78500298  .00000190  00000+0  44104-3 0  9994
2 55810  87.9179 146.0554 0002215  74.9937 285.1440 13.19728813 26315
ONEWEB-0648             
1 55811U 23029R   23253.69666960  .00000056  00000+0  96173-4 0  9999
2 55811  87.9563 130.8357 0002422  89.0357 271.1057 13.27330530 27345
ONEWEB-0649             
1 55812U 23029S   23253.74787260  .00000033  00000+0  49848-4 0  9995
2 55812  87.9190 146.0779 0002378  83.5015 276.6388 13.19718617 26342
